start=new Date('2021-09-28T00:00:00.000Z').valueOf();
sats=[{"EPOCH":"2021-09-27T19:19:47.222688","SEMIMAJOR_AXIS":"6925.358","TLE_LINE2":"2 45534  53.0544 196.5280 0001774  74.6663 285.4522 15.06397043 80336","MEAN_ELEMENT_THEORY":"SGP4","BSTAR":"0.00006626700000","LAUNCH_DATE":"2020-04-22","ARG_OF_PERICENTER":"74.6663","REF_FRAME":"TEME","NORAD_CAT_ID":"45534","MEAN_MOTION":"15.06397043","MEAN_MOTION_DOT":"0.00000705","ECCENTRICITY":"0.00017740","DECAY_DATE":null,"TIME_SYSTEM":"UTC","EPHEMERIS_TYPE":"0","OBJECT_NAME":"STARLINK-1341","FILE":"3131463","CENTER_NAME":"EARTH","REV_AT_EPOCH":"8033","MEAN_ANOMALY":"285.4522","MEAN_MOTION_DDOT":"0.0000000000000","INCLINATION":"53.0544","RCS_SIZE":"LARGE","PERIOD":"95.592","COUNTRY_CODE":"US","ELEMENT_SET_NO":"999","OBJECT_ID":"2020-025D","SITE":"AFETR","TLE_LINE1":"1 45534U 20025D   21270.80540767  .00000705  00000-0  66267-4 0  9992","OBJECT_TYPE":"PAYLOAD","RA_OF_ASC_NODE":"196.5280","CLASSIFICATION_TYPE":"U","PERIAPSIS":"545.994","APOAPSIS":"548.451","GP_ID":"185665257"},{"GP_ID":"185666007","OBJECT_TYPE":"PAYLOAD","TLE_LINE1":"1 45535U 20025E   21270.82384150  .00000270  00000-0  37012-4 0  9990","RA_OF_ASC_NODE":"196.4470","SITE":"AFETR","CLASSIFICATION_TYPE":"U","PERIAPSIS":"545.859","APOAPSIS":"548.556","RCS_SIZE":"LARGE","INCLINATION":"53.0549","ELEMENT_SET_NO":"999","OBJECT_ID":"2020-025E","PERIOD":"95.592","COUNTRY_CODE":"US","CENTER_NAME":"EARTH","FILE":"3131463","MEAN_MOTION_DDOT":"0.0000000000000","REV_AT_EPOCH":"8034","MEAN_ANOMALY":"294.8853","MEAN_MOTION_DOT":"0.00000270","OBJECT_NAME":"STARLINK-1350","TIME_SYSTEM":"UTC","DECAY_DATE":null,"ECCENTRICITY":"0.00019470","EPHEMERIS_TYPE":"0","REF_FRAME":"TEME","NORAD_CAT_ID":"45535","MEAN_MOTION":"15.06401901","ARG_OF_PERICENTER":"65.2339","LAUNCH_DATE":"2020-04-22","SEMIMAJOR_AXIS":"6925.343","EPOCH":"2021-09-27T19:46:19.905600","TLE_LINE2":"2 45535  53.0549 196.4470 0001947  65.2339 294.8853 15.06401901 80341","MEAN_ELEMENT_THEORY":"SGP4","BSTAR":"0.00003701200000"},{"MEAN_ELEMENT_THEORY":"SGP4","TLE_LINE2":"2 45536  53.0544 196.4271 0001922  68.3315 291.7878 15.06403138 80333","BSTAR":"-0.00015571000000","SEMIMAJOR_AXIS":"6925.339","EPOCH":"2021-09-27T19:51:38.455488","ARG_OF_PERICENTER":"68.3315","LAUNCH_DATE":"2020-04-22","MEAN_MOTION":"15.06403138","NORAD_CAT_ID":"45536","REF_FRAME":"TEME","OBJECT_NAME":"STARLINK-1352","EPHEMERIS_TYPE":"0","TIME_SYSTEM":"UTC","DECAY_DATE":null,"ECCENTRICITY":"0.00019220","MEAN_MOTION_DOT":"-0.00002600","MEAN_MOTION_DDOT":"0.0000000000000","MEAN_ANOMALY":"291.7878","REV_AT_EPOCH":"8033","CENTER_NAME":"EARTH","FILE":"3131463","ELEMENT_SET_NO":"999","OBJECT_ID":"2020-025F","PERIOD":"95.592","COUNTRY_CODE":"US","RCS_SIZE":"LARGE","INCLINATION":"53.0544","APOAPSIS":"548.535","PERIAPSIS":"545.873","CLASSIFICATION_TYPE":"U","OBJECT_TYPE":"PAYLOAD","TLE_LINE1":"1 45536U 20025F   21270.82752842 -.00002600  00000-0 -15571-3 0  9994","RA_OF_ASC_NODE":"196.4271","SITE":"AFETR","GP_ID":"185666259"},{"CENTER_NAME":"EARTH","FILE":"3131463","MEAN_MOTION_DDOT":"0.0000000000000","REV_AT_EPOCH":"8062","MEAN_ANOMALY":"331.7752","RCS_SIZE":"LARGE","INCLINATION":"53.0022","ELEMENT_SET_NO":"999","OBJECT_ID":"2020-025G","PERIOD":"95.081","COUNTRY_CODE":"US","TLE_LINE1":"1 45537U 20025G   21270.69817677  .00005774  00000-0  32602-3 0  9995","RA_OF_ASC_NODE":"174.2358","OBJECT_TYPE":"PAYLOAD","SITE":"AFETR","PERIAPSIS":"521.738","CLASSIFICATION_TYPE":"U","APOAPSIS":"523.258","GP_ID":"185667005","SEMIMAJOR_AXIS":"6900.633","EPOCH":"2021-09-27T16:45:22.472928","TLE_LINE2":"2 45537  53.0022 174.2358 0001101  28.3299 331.7752 15.14500314 80622","MEAN_ELEMENT_THEORY":"SGP4","BSTAR":"0.00032602000000","ARG_OF_PERICENTER":"28.3299","LAUNCH_DATE":"2020-04-22","REF_FRAME":"TEME","MEAN_MOTION":"15.14500314","NORAD_CAT_ID":"45537","MEAN_MOTION_DOT":"0.00005774","OBJECT_NAME":"STARLINK-1353","ECCENTRICITY":"0.00011010","DECAY_DATE":null,"TIME_SYSTEM":"UTC","EPHEMERIS_TYPE":"0"},{"GP_ID":"185665757","SITE":"AFETR","OBJECT_TYPE":"PAYLOAD","TLE_LINE1":"1 45538U 20025H   21270.78698496  .00000948  00000-0  82550-4 0  9998","RA_OF_ASC_NODE":"196.6021","PERIAPSIS":"546.001","CLASSIFICATION_TYPE":"U","APOAPSIS":"548.446","INCLINATION":"53.0543","RCS_SIZE":"LARGE","PERIOD":"95.592","COUNTRY_CODE":"US","OBJECT_ID":"2020-025H","ELEMENT_SET_NO":"999","FILE":"3131463","CENTER_NAME":"EARTH","REV_AT_EPOCH":"8033","MEAN_ANOMALY":"280.8795","MEAN_MOTION_DDOT":"0.0000000000000","MEAN_MOTION_DOT":"0.00000948","DECAY_DATE":null,"ECCENTRICITY":"0.00017650","TIME_SYSTEM":"UTC","EPHEMERIS_TYPE":"0","OBJECT_NAME":"STARLINK-1362","REF_FRAME":"TEME","NORAD_CAT_ID":"45538","MEAN_MOTION":"15.06396754","LAUNCH_DATE":"2020-04-22","ARG_OF_PERICENTER":"79.2393","EPOCH":"2021-09-27T18:53:15.500544","SEMIMAJOR_AXIS":"6925.359","TLE_LINE2":"2 45538  53.0543 196.6021 0001765  79.2393 280.8795 15.06396754 80333","BSTAR":"0.00008255000000","MEAN_ELEMENT_THEORY":"SGP4"},{"TLE_LINE1":"1 45539U 20025J   21270.87248758  .00008500  00000-0  69720-4 0  9997","RA_OF_ASC_NODE":"124.2453","OBJECT_TYPE":"PAYLOAD","SITE":"AFETR","APOAPSIS":"356.130","CLASSIFICATION_TYPE":"U","PERIAPSIS":"353.205","GP_ID":"185665508","CENTER_NAME":"EARTH","FILE":"3131463","MEAN_MOTION_DDOT":"0.0000000000000","REV_AT_EPOCH":"8133","MEAN_ANOMALY":"332.5700","RCS_SIZE":"LARGE","INCLINATION":"53.0577","ELEMENT_SET_NO":"999","OBJECT_ID":"2020-025J","COUNTRY_CODE":"US","PERIOD":"91.633","NORAD_CAT_ID":"45539","MEAN_MOTION":"15.71480322","REF_FRAME":"TEME","MEAN_MOTION_DOT":"0.00008500","OBJECT_NAME":"STARLINK-1367","EPHEMERIS_TYPE":"0","TIME_SYSTEM":"UTC","DECAY_DATE":null,"ECCENTRICITY":"0.00021720","SEMIMAJOR_AXIS":"6732.803","EPOCH":"2021-09-27T20:56:22.926912","TLE_LINE2":"2 45539  53.0577 124.2453 0002172  27.5432 332.5700 15.71480322 81339","BSTAR":"0.00006972000000","MEAN_ELEMENT_THEORY":"SGP4","ARG_OF_PERICENTER":"27.5432","LAUNCH_DATE":"2020-04-22"},{"LAUNCH_DATE":"2020-04-22","ARG_OF_PERICENTER":"65.1979","EPOCH":"2021-09-27T19:56:57.682752","SEMIMAJOR_AXIS":"6925.390","TLE_LINE2":"2 45540  53.0551 196.4106 0001724  65.1979 294.9189 15.06386607 80335","BSTAR":"0.00005360900000","MEAN_ELEMENT_THEORY":"SGP4","MEAN_MOTION_DOT":"0.00000517","EPHEMERIS_TYPE":"0","DECAY_DATE":null,"ECCENTRICITY":"0.00017240","TIME_SYSTEM":"UTC","OBJECT_NAME":"STARLINK-1368","MEAN_MOTION":"15.06386607","NORAD_CAT_ID":"45540","REF_FRAME":"TEME","INCLINATION":"53.0551","RCS_SIZE":"LARGE","COUNTRY_CODE":"US","PERIOD":"95.593","ELEMENT_SET_NO":"999","OBJECT_ID":"2020-025K","FILE":"3131463","CENTER_NAME":"EARTH","MEAN_ANOMALY":"294.9189","REV_AT_EPOCH":"8033","MEAN_MOTION_DDOT":"0.0000000000000","GP_ID":"185666759","SITE":"AFETR","TLE_LINE1":"1 45540U 20025K   21270.83122318  .00000517  00000-0  53609-4 0  9997","OBJECT_TYPE":"PAYLOAD","RA_OF_ASC_NODE":"196.4106","APOAPSIS":"548.449","PERIAPSIS":"546.061","CLASSIFICATION_TYPE":"U"},{"INCLINATION":"53.0538","RCS_SIZE":"LARGE","PERIOD":"95.593","COUNTRY_CODE":"US","OBJECT_ID":"2020-025L","ELEMENT_SET_NO":"999","FILE":"3131463","CENTER_NAME":"EARTH","REV_AT_EPOCH":"8033","MEAN_ANOMALY":"298.3691","MEAN_MOTION_DDOT":"0.0000000000000","GP_ID":"185666506","SITE":"AFETR","TLE_LINE1":"1 45541U 20025L   21270.83490886 -.00000198  00000-0  55919-5 0  9999","RA_OF_ASC_NODE":"196.3937","OBJECT_TYPE":"PAYLOAD","CLASSIFICATION_TYPE":"U","PERIAPSIS":"545.985","APOAPSIS":"548.495","LAUNCH_DATE":"2020-04-22","ARG_OF_PERICENTER":"61.7481","EPOCH":"2021-09-27T20:02:16.125504","SEMIMAJOR_AXIS":"6925.375","BSTAR":"0.00000559190000","TLE_LINE2":"2 45541  53.0538 196.3937 0001812  61.7481 298.3691 15.06391411 80335","MEAN_ELEMENT_THEORY":"SGP4","MEAN_MOTION_DOT":"-0.00000198","TIME_SYSTEM":"UTC","DECAY_DATE":null,"ECCENTRICITY":"0.00018120","EPHEMERIS_TYPE":"0","OBJECT_NAME":"STARLINK-1369","REF_FRAME":"TEME","NORAD_CAT_ID":"45541","MEAN_MOTION":"15.06391411"},{"PERIAPSIS":"545.767","CLASSIFICATION_TYPE":"U","APOAPSIS":"548.672","SITE":"AFETR","OBJECT_TYPE":"PAYLOAD","TLE_LINE1":"1 45542U 20025M   21270.80172695  .00000349  00000-0  42334-4 0  9995","RA_OF_ASC_NODE":"196.5398","GP_ID":"185665258","MEAN_ANOMALY":"289.3382","REV_AT_EPOCH":"8033","MEAN_MOTION_DDOT":"0.0000000000000","FILE":"3131463","CENTER_NAME":"EARTH","COUNTRY_CODE":"US","PERIOD":"95.592","OBJECT_ID":"2020-025M","ELEMENT_SET_NO":"999","INCLINATION":"53.0547","RCS_SIZE":"LARGE","REF_FRAME":"TEME","NORAD_CAT_ID":"45542","MEAN_MOTION":"15.06398113","DECAY_DATE":null,"ECCENTRICITY":"0.00020970","TIME_SYSTEM":"UTC","EPHEMERIS_TYPE":"0","OBJECT_NAME":"STARLINK-1371","MEAN_MOTION_DOT":"0.00000349","TLE_LINE2":"2 45542  53.0547 196.5398 0002097  70.7833 289.3382 15.06398113 80339","MEAN_ELEMENT_THEORY":"SGP4","BSTAR":"0.00004233400000","EPOCH":"2021-09-27T19:14:29.208480","SEMIMAJOR_AXIS":"6925.354","LAUNCH_DATE":"2020-04-22","ARG_OF_PERICENTER":"70.7833"},{"OBJECT_NAME":"STARLINK-1372","ECCENTRICITY":"0.00017710","DECAY_DATE":null,"TIME_SYSTEM":"UTC","EPHEMERIS_TYPE":"0","MEAN_MOTION_DOT":"0.00000082","REF_FRAME":"TEME","MEAN_MOTION":"15.06394562","NORAD_CAT_ID":"45543","ARG_OF_PERICENTER":"70.5404","LAUNCH_DATE":"2020-04-22","MEAN_ELEMENT_THEORY":"SGP4","TLE_LINE2":"2 45543  53.0536 197.8651 0001771  70.5404 289.5776 15.06394562 79380","BSTAR":"0.00002443000000","SEMIMAJOR_AXIS":"6925.365","EPOCH":"2021-09-27T12:09:52.549344","GP_ID":"185633743","PERIAPSIS":"546.004","CLASSIFICATION_TYPE":"U","APOAPSIS":"548.457","RA_OF_ASC_NODE":"197.8651","TLE_LINE1":"1 45543U 20025N   21270.50685821  .00000082  00000-0  24430-4 0  9994","OBJECT_TYPE":"PAYLOAD","SITE":"AFETR","ELEMENT_SET_NO":"999","OBJECT_ID":"2020-025N","PERIOD":"95.592","COUNTRY_CODE":"US","RCS_SIZE":"LARGE","INCLINATION":"53.0536","MEAN_MOTION_DDOT":"0.0000000000000","MEAN_ANOMALY":"289.5776","REV_AT_EPOCH":"7938","CENTER_NAME":"EARTH","FILE":"3130990"}];
